OBJECT_NAME,OBJECT_ID,EPOCH,MEAN_MOTION,ECCENTRICITY,INCLINATION,RA_OF_ASC_NODE,ARG_OF_PERICENTER,MEAN_ANOMALY,EPHEMERIS_TYPE,CLASSIFICATION_TYPE,NORAD_CAT_ID,ELEMENT_SET_NO,REV_AT_EPOCH,BSTAR,MEAN_MOTION_DOT,MEAN_MOTION_DDOT
STARLINK-30766,2023-162H,2026-06-13T16:07:33.421440,15.27584813,.00012103,43.0083,307.2666,252.6091,107.4628,0,U,58125,999,14702,.47273115E-4,.1039E-4,0
STARLINK-30767,2023-162J,2026-06-13T16:03:51.300864,15.27582388,.00016605,42.9974,307.2320,265.1182,94.9480,0,U,58126,999,14702,.26461593E-4,.466E-5,0
STARLINK-30790,2023-162K,2026-06-14T02:34:51.456000,15.19473051,.00191897,43.0006,312.2202,299.8862,60.0080,0,U,58127,999,14700,.15020653E-2,.32524E-3,0
STARLINK-30787,2023-162L,2026-06-13T16:05:43.199232,15.27570473,.0001437,42.9979,307.2407,264.3767,95.6921,0,U,58128,999,14702,-.25194135E-4,-.955E-5,0
STARLINK-30756,2023-162M,2026-06-14T02:40:02.211744,15.27583646,.0001452,43.0035,307.9336,263.7404,96.3283,0,U,58129,999,14705,.28926488E-4,.534E-5,0
STARLINK-30783,2023-162N,2026-06-12T16:24:06.878016,15.27582693,.00032947,43.0209,312.7500,288.6135,71.4359,0,U,58130,999,14687,.41324476E-4,.874E-5,0
STARLINK-30757,2023-162P,2026-06-14T02:50:00.542112,15.27577617,.00016565,43.0015,304.5908,275.2600,84.8062,0,U,58131,999,14709,.38041193E-4,.785E-5,0
STARLINK-30770,2023-162Q,2026-06-14T02:49:17.884704,15.27568040,.00014508,43.0060,307.9761,283.8755,76.1936,0,U,58132,999,14704,-.12577262E-4,-.608E-5,0
STARLINK-30758,2023-162R,2026-06-13T20:40:46.687872,15.27582640,.0001893,43.0048,306.1026,277.0495,83.0141,0,U,58133,999,14705,.34408E-4,.685E-5,0
STARLINK-30761,2023-162S,2026-06-14T02:54:49.855104,15.27583226,.00012998,43.0093,308.0031,261.5192,98.5512,0,U,58134,999,14705,-.12205225E-3,-.362E-4,0
STARLINK-30772,2023-162T,2026-06-14T02:32:38.456160,15.27610097,.00019047,43.0059,307.8960,285.4810,74.5831,0,U,58135,999,14705,-.35006948E-3,-.9892E-4,0
STARLINK-30776,2023-162U,2026-06-12T02:38:19.902048,15.40734606,.00156424,42.9948,314.3282,318.3901,41.5765,0,U,58136,999,14680,.22654306E-2,.96019E-3,0
STARLINK-30782,2023-162V,2026-06-14T02:58:33.384864,15.27570591,.00014682,43.0092,308.0346,273.6103,86.4581,0,U,58137,999,14705,.1896189E-5,-.21E-5,0
STARLINK-30769,2023-162W,2026-06-14T02:08:36.093696,15.27565275,.00017027,43.0038,307.7746,265.7693,94.2964,0,U,58138,999,14705,-.31275894E-4,-.1122E-4,0
STARLINK-30775,2023-162X,2026-06-14T02:03:02.140416,15.27576751,.00014315,43.0024,307.7486,260.7836,99.2854,0,U,58139,999,14705,-.595654E-6,-.279E-5,0
STARLINK-30780,2023-162Y,2026-06-14T02:17:49.890912,15.27579069,.00017877,42.9990,307.8175,279.0510,81.0139,0,U,58140,999,14705,.14684205E-4,.142E-5,0
YAOGAN-39 04A,2023-163A,2026-06-14T00:31:30.370656,15.22911788,.00057209,35.0020,4.6316,332.3692,27.6718,0,U,58141,999,14709,.43734839E-3,.1049E-3,0
YAOGAN-39 04B,2023-163C,2026-06-14T07:10:41.608416,15.17697205,.0004103,34.9946,26.8534,243.5903,116.4389,0,U,58143,999,14687,.26499E-3,.5436E-4,0
YAOGAN-39 04C,2023-163E,2026-06-14T07:05:29.026176,15.17741300,.0007102,34.9915,26.6760,1.3770,358.6962,0,U,58145,999,14688,.25498E-3,.5238E-4,0
COSMOS 2570,2023-165A,2026-06-14T12:54:47.507040,13.96671677,.0006825,67.1501,295.8669,276.8189,83.2119,0,U,58148,999,13426,-.47509E-5,-.82E-6,0
STARLINK-30802,2023-166A,2026-06-14T04:03:33.764256,15.31696057,.00011496,53.1605,131.2573,96.5808,263.5324,0,U,58150,999,14795,-.4963582E-5,-.519E-5,0
STARLINK-30834,2023-166B,2026-06-14T03:44:27.777984,15.30205338,.00012452,53.1584,131.6758,99.8376,260.2766,0,U,58151,999,14794,.94802655E-3,.27828E-3,0
STARLINK-30833,2023-166C,2026-06-14T04:37:10.273728,15.31682880,.00013831,53.1610,131.4043,92.9962,267.1198,0,U,58152,999,14795,.13755441E-3,.3903E-4,0
STARLINK-30831,2023-166D,2026-06-14T04:23:43.824768,15.31699852,.00013858,53.1609,131.3593,78.7135,281.4022,0,U,58153,999,14795,.340119E-5,-.26E-5,0
STARLINK-30797,2023-166E,2026-06-14T03:49:02.675136,15.30171299,.00021113,53.1598,131.6893,88.9142,271.2101,0,U,58154,999,14779,.14682701E-3,.3988E-4,0
STARLINK-30804,2023-166F,2026-06-14T04:10:17.461344,15.31694539,.00014945,53.1607,131.2970,88.9725,271.1448,0,U,58155,999,14795,-.36733524E-4,-.1505E-4,0
STARLINK-30784,2023-166G,2026-06-14T05:14:00.513600,15.30190517,.0001357,53.1600,131.5614,97.5794,262.5361,0,U,58156,999,14780,-.59092E-5,-.534E-5,0
STARLINK-30803,2023-166H,2026-06-14T03:29:57.210720,15.31719745,.00014754,53.1609,131.1065,92.1343,267.9827,0,U,58157,999,14780,-.74002922E-4,-.2662E-4,0
STARLINK-30829,2023-166J,2026-06-14T04:17:00.615840,15.31698586,.00013976,53.1599,131.3238,83.4008,276.7152,0,U,58158,999,14795,-.15221182E-4,-.837E-5,0
STARLINK-30788,2023-166K,2026-06-14T03:56:50.856864,15.31696303,.00014641,53.1587,131.2441,63.7136,296.4015,0,U,58159,999,14780,.14789785E-3,.4226E-4,0
