STARLINK-30766          
1 58125U 23162H   26164.67191460  .00001039  00000+0  47273-4 0  9997
2 58125  43.0083 307.2666 0001210 252.6091 107.4628 15.27584813147026
STARLINK-30767          
1 58126U 23162J   26164.66934376  .00000466  00000+0  26462-4 0  9998
2 58126  42.9974 307.2320 0001660 265.1182  94.9480 15.27582388147021
STARLINK-30790          
1 58127U 23162K   26165.10754000  .00032524  00000+0  15021-2 0  9990
2 58127  43.0006 312.2202 0019189 299.8862  60.0080 15.19473051147004
STARLINK-30787          
1 58128U 23162L   26164.67063888 -.00000955  00000+0 -25194-4 0  9998
2 58128  42.9979 307.2407 0001437 264.3767  95.6921 15.27570473147026
STARLINK-30756          
1 58129U 23162M   26165.11113671  .00000534  00000+0  28926-4 0  9992
2 58129  43.0035 307.9336 0001452 263.7404  96.3283 15.27583646147056
STARLINK-30783          
1 58130U 23162N   26163.68341294  .00000874  00000+0  41324-4 0  9992
2 58130  43.0209 312.7500 0003294 288.6135  71.4359 15.27582693146879
STARLINK-30757          
1 58131U 23162P   26165.11806183  .00000785  00000+0  38041-4 0  9999
2 58131  43.0015 304.5908 0001656 275.2600  84.8062 15.27577617147099
STARLINK-30770          
1 58132U 23162Q   26165.11756811 -.00000608  00000+0 -12577-4 0  9994
2 58132  43.0060 307.9761 0001450 283.8755  76.1936 15.27568040147041
STARLINK-30758          
1 58133U 23162R   26164.86165148  .00000685  00000+0  34408-4 0  9993
2 58133  43.0048 306.1026 0001893 277.0495  83.0141 15.27582640147058
STARLINK-30761          
1 58134U 23162S   26165.12141036 -.00003620  00000+0 -12205-3 0  9998
2 58134  43.0093 308.0031 0001299 261.5192  98.5512 15.27583226147052
STARLINK-30772          
1 58135U 23162T   26165.10600065 -.00009892  00000+0 -35007-3 0  9991
2 58135  43.0059 307.8960 0001904 285.4810  74.5831 15.27610097147053
STARLINK-30776          
1 58136U 23162U   26163.10995257  .00096019  00000+0  22654-2 0  9998
2 58136  42.9948 314.3282 0015642 318.3901  41.5765 15.40734606146800
STARLINK-30782          
1 58137U 23162V   26165.12399751 -.00000210  00000+0  18962-5 0  9999
2 58137  43.0092 308.0346 0001468 273.6103  86.4581 15.27570591147050
STARLINK-30769          
1 58138U 23162W   26165.08930664 -.00001122  00000+0 -31276-4 0  9995
2 58138  43.0038 307.7746 0001702 265.7693  94.2964 15.27565275147053
STARLINK-30775          
1 58139U 23162X   26165.08544144 -.00000279  00000+0 -59565-6 0  9995
2 58139  43.0024 307.7486 0001431 260.7836  99.2854 15.27576751147057
STARLINK-30780          
1 58140U 23162Y   26165.09571633  .00000142  00000+0  14684-4 0  9999
2 58140  42.9990 307.8175 0001787 279.0510  81.0139 15.27579069147051
YAOGAN-39 04A           
1 58141U 23163A   26165.02187929  .00010490  00000+0  43735-3 0  9990
2 58141  35.0020   4.6316 0005720 332.3692  27.6718 15.22911788147099
YAOGAN-39 04B           
1 58143U 23163C   26165.29909269  .00005436  00000+0  26499-3 0  9992
2 58143  34.9946  26.8534 0004103 243.5903 116.4389 15.17697205146871
YAOGAN-39 04C           
1 58145U 23163E   26165.29547484  .00005238  00000+0  25498-3 0  9999
2 58145  34.9915  26.6760 0007102   1.3770 358.6962 15.17741300146886
COSMOS 2570             
1 58148U 23165A   26165.53804985 -.00000082  00000+0 -47509-5 0  9996
2 58148  67.1501 295.8669 0006825 276.8189  83.2119 13.96671677134268
STARLINK-30802          
1 58150U 23166A   26165.16914079 -.00000519  00000+0 -49636-5 0  9993
2 58150  53.1605 131.2573 0001149  96.5808 263.5324 15.31696057147958
STARLINK-30834          
1 58151U 23166B   26165.15587706  .00027828  00000+0  94803-3 0  9990
2 58151  53.1584 131.6758 0001245  99.8376 260.2766 15.30205338147947
STARLINK-30833          
1 58152U 23166C   26165.19248002  .00003903  00000+0  13755-3 0  9993
2 58152  53.1610 131.4043 0001383  92.9962 267.1198 15.31682880147959
STARLINK-30831          
1 58153U 23166D   26165.18314612 -.00000260  00000+0  34012-5 0  9999
2 58153  53.1609 131.3593 0001385  78.7135 281.4022 15.31699852147955
STARLINK-30797          
1 58154U 23166E   26165.15905874  .00003988  00000+0  14683-3 0  9992
2 58154  53.1598 131.6893 0002111  88.9142 271.2101 15.30171299147794
STARLINK-30804          
1 58155U 23166F   26165.17381321 -.00001505  00000+0 -36734-4 0  9997
2 58155  53.1607 131.2970 0001494  88.9725 271.1448 15.31694539147957
STARLINK-30784          
1 58156U 23166G   26165.21806150 -.00000534  00000+0 -59092-5 0  9999
2 58156  53.1600 131.5614 0001357  97.5794 262.5361 15.30190517147807
STARLINK-30803          
1 58157U 23166H   26165.14580105 -.00002662  00000+0 -74003-4 0  9993
2 58157  53.1609 131.1065 0001475  92.1343 267.9827 15.31719745147802
STARLINK-30829          
1 58158U 23166J   26165.17847935 -.00000837  00000+0 -15221-4 0  9993
2 58158  53.1599 131.3238 0001397  83.4008 276.7152 15.31698586147953
STARLINK-30788          
1 58159U 23166K   26165.16447751  .00004226  00000+0  14790-3 0  9998
2 58159  53.1587 131.2441 0001464  63.7136 296.4015 15.31696303147800
